CELTEE 1                
1 41850U 16067C   18135.20186067  .00000498  00000-0  48788-4 0  9996
2 41850  97.9241 222.9762 0007079 275.0162  85.0251 14.96803293 82161
OPTICUBE 04             
1 41851U 16067D   18134.82964451 -.00000126  00000-0 -57205-5 0  9990
2 41851  97.9227 222.5230 0007694 277.4734  82.5612 14.96656756 82103
AEROCUBE 8D             
1 41852U 16067E   18135.19683612  .00000718  00000-0  68546-4 0  9993
2 41852  97.9248 222.7419 0007977 275.5629  84.4682 14.96477779 82142
AEROCUBE 8C             
1 41853U 16067F   18134.87585239  .00000048  00000-0  95691-5 0  9992
2 41853  97.9248 222.3824 0008500 279.1836  80.8423 14.96442631 82098
PROMETHEUS 2-1          
1 41854U 16067G   18135.21883986 -.00000072  00000-0 -96681-6 0  9992
2 41854  97.9250 222.7308 0008999 276.9833  83.0364 14.96534269 82141
PROMETHEUS 2-3          
1 41855U 16067H   18135.22141299 -.00000043  00000-0  15929-5 0  9990
2 41855  97.9251 222.7370 0009218 277.1831  82.8342 14.96530906 82145
ITF-2                   
1 41932U 98067KU  18134.42914043  .00033137  00000-0  22789-3 0  9991
2 41932  51.6341 154.5472 0005483  53.8391 306.3114 15.74316192 75445
WASEDA-SAT3             
1 41933U 98067KV  18135.16566346  .00048321  00000-0  26035-3 0  9992
2 41933  51.6326 145.0821 0005342  53.4638 306.6854 15.79662964 75637
AOBA-VELOX 3            
1 41935U 98067KX  18135.53618859  .00036746  00000-0  21816-3 0  9992
2 41935  51.6348 145.3847 0005471  58.1983 301.9549 15.77627664 75761
INS-1B                  
1 41954U 17008G   18135.20618433  .00001606  00000-0  71393-4 0  9994
2 41954  97.4484 199.4451 0011154 107.0003 253.2456 15.22920507 68988
BGUSAT                  
1 41999U 17008BD  18135.47547519  .00002447  00000-0  10250-3 0  9996
2 41999  97.4527 200.6727 0010196 121.4170 238.8065 15.24454412 68441
DIDO-2                  
1 42000U 17008BE  18135.15219854  .00001179  00000-0  52935-4 0  9991
2 42000  97.4502 199.8056 0010134 122.7531 237.4684 15.23128525 68375
PEASSS                  
1 42015U 17008BV  18135.14804425  .00001437  00000-0  62395-4 0  9998
2 42015  97.4499 200.2190 0007942 127.5286 232.6674 15.23927558 68880
AL-FARABI 1             
1 42016U 17008BW  18135.14941457  .00001747  00000-0  74341-4 0  9994
2 42016  97.4505 200.3943 0007887 127.7958 232.3994 15.24320794 69010
NAYIF-1 (EO-88)         
1 42017U 17008BX  18134.88160565  .00001759  00000-0  74818-4 0  9990
2 42017  97.4503 200.1342 0007855 128.7690 231.4250 15.24342692 68991
HAVELSAT                
1 42700U 98067LH  18135.43883492  .00023790  00000-0  20181-3 0  9998
2 42700  51.6341 162.0491 0003941  94.3284 265.8164 15.69528731 56870
CXBN-2                  
1 42704U 98067LM  18135.45119879  .00021664  00000-0  18729-3 0  9998
2 42704  51.6346 162.8957 0003682  38.9453 321.1809 15.69131828 56787
ICECUBE                 
1 42705U 98067LN  18135.44878144  .00038131  00000-0  24125-3 0  9999
2 42705  51.6425 156.9421 0004501  56.1475 303.9953 15.76172742 56925
PHOENIX                 
1 42706U 98067LP  18135.35956854  .00017217  00000-0  15739-3 0  9998
2 42706  51.6343 163.7769 0002579  41.2755 318.8436 15.67940284 56751
X-CUBESAT               
1 42707U 98067LQ  18135.42959581  .00025539  00000-0  21229-3 0  9994
2 42707  51.6310 161.9332 0003083  37.9070 322.2144 15.69978460 56771
QBEE50-LTU-OC           
1 42708U 98067LR  18135.29583291  .00023134  00000-0  19893-3 0  9994
2 42708  51.6347 163.3350 0002923  39.1894 320.9314 15.69219243 56702
ALTAIR PATHFINDER       
1 42711U 98067LS  18135.34949448  .00011436  00000-0  12631-3 0  9999
2 42711  51.6348 169.7181 0004736  50.5288 309.6125 15.63572890 56334
SHARC                   
1 42712U 98067LT  18135.21697493  .00016872  00000-0  18789-3 0  9995
2 42712  51.6366 171.8844 0003687  47.6351 312.4955 15.62966653 56535
ZA-AEROSAT              
1 42713U 98067LU  18135.29749294  .00015799  00000-0  15242-3 0  9999
2 42713  51.6336 166.3520 0003600  37.0792 323.0452 15.66673595 56376
LINK                    
1 42714U 98067LV  18135.46614626  .00050999  00000-0  31621-3 0  9999
2 42714  51.6255 156.8516 0005319  32.0871 328.0451 15.76495444 56626
CSUNSAT 1               
1 42715U 98067LW  18135.45565255  .00017116  00000-0  16148-3 0  9993
2 42715  51.6345 165.1772 0005209  41.1485 318.9903 15.67154602 56408
SPACECUBE               
1 42717U 98067LY  18135.44851210  .00021552  00000-0  18589-3 0  9993
2 42717  51.6324 162.8416 0003034  81.3948 278.7393 15.69194087 55802
HOOPOE                  
1 42718U 98067LZ  18135.46764045  .00029049  00000-0  22738-3 0  9995
2 42718  51.6334 160.7222 0003282  71.1826 288.9528 15.71347863 55834
CHALLENGER              
1 42721U 98067MA  18135.42369742  .00072300  00000-0  36088-3 0  9991
2 42721  51.6272 153.5484 0006297  60.2987 299.8641 15.81161916 55623
NJUST-1                 
1 42722U 98067MB  18135.53064736  .00014012  00000-0  14047-3 0  9996
2 42722  51.6344 166.4259 0005665  92.9114 267.2530 15.65815802 55469
UNSW-ECO                
1 42723U 98067MC  18135.54491949  .00030383  00000-0  23216-3 0  9995
2 42723  51.6352 160.5145 0005269  77.3851 282.7736 15.71888109 55527
LILACSAT-1              
1 42725U 98067ME  18135.17440139  .00019739  00000-0  17970-3 0  9993
2 42725  51.6344 166.2922 0004726  84.7735 275.3801 15.67926422 55332
NSIGHT-1                
1 42726U 98067MF  18135.35023881  .00006516  00000-0  81941-4 0  9994
2 42726  51.6373 172.7699 0005596 102.9165 257.2453 15.61060098 55271
SNUSAT-1                
1 42727U 98067MG  18135.12040261  .00020914  00000-0  19074-3 0  9996
2 42727  51.6326 166.6358 0007165  59.5840 300.5863 15.67822721 55299
I-INSPIRE II            
1 42731U 98067ML  18135.29536677  .00031650  00000-0  23655-3 0  9999
2 42731  51.6323 161.0335 0007094  46.6724 313.4864 15.72376294 55271
POLYITAN-2-SAU          
1 42732U 98067MM  18135.43071766  .00024258  00000-0  20336-3 0  9998
2 42732  51.6333 162.7172 0007027  47.9071 312.2522 15.69785033 55263
SNUSAT-1B               
1 42733U 98067MN  18135.29694484  .00021042  00000-0  18716-3 0  9998
2 42733  51.6339 164.8379 0006986  50.2937 309.8675 15.68437241 55224
EXALTA-1                
1 42734U 98067MP  18135.54342711  .00034973  00000-0  25550-3 0  9991
2 42734  51.6301 159.6708 0007206  65.4991 294.6758 15.72860577 55260
BEEAGLESAT              
1 42736U 98067MR  18135.45913193  .00017950  00000-0  16782-3 0  9994
2 42736  51.6335 165.1698 0005951  87.5519 272.6158 15.67335737 55297
UCLSAT                  
1 42765U 17036A   18134.80638872  .00001492  00000-0  68756-4 0  9992
2 42765  97.4036 195.1894 0011677 185.3372 174.7742 15.21766140 50227
LITUANICASAT-2          
1 42768U 17036D   18134.91840828  .00002393  00000-0  10996-3 0  9996
2 42768  97.4049 194.9184 0016060 176.6023 183.5325 15.21233393 49503
AALTO-1                 
1 42775U 17036L   18135.13291740  .00000972  00000-0  47268-4 0  9996
2 42775  97.4029 195.0562 0014411 173.6197 186.5225 15.20691397 49477
URSA MAIOR              
1 42776U 17036M   18134.92373145  .00001046  00000-0  50544-4 0  9997
2 42776  97.4036 194.8951 0014248 174.4941 185.6454 15.20764352 49442
COMPASS 2               
1 42777U 17036N   18134.93495924  .00001822  00000-0  83644-4 0  9998
2 42777  97.4055 195.2396 0013181 177.0333 183.0983 15.21619916 49457
DIAMOND RED             
1 42783U 17036U   18134.92838748  .00001206  00000-0  56766-4 0  9990
2 42783  97.4037 195.1849 0012280 185.3206 174.7901 15.21385999 49454
PEGASUS                 
1 42784U 17036V   18135.16851232  .00001345  00000-0  62626-4 0  9997
2 42784  97.4038 195.4798 0012232 184.5861 175.5264 15.21580146 49493
DIAMOND GREEN           
1 42785U 17036W   18134.92733177  .00001218  00000-0  57316-4 0  9997
2 42785  97.4039 195.1958 0012162 185.8503 174.2593 15.21388593 49526
DIAMOND BLUE            
1 42786U 17036X   18134.86069348  .00001211  00000-0  57031-4 0  9990
2 42786  97.4039 195.1306 0011981 186.2494 173.8594 15.21388492 49519
NUDTSAT                 
1 42787U 17036Y   18134.90168527  .00001971  00000-0  88961-4 0  9994
2 42787  97.4043 195.3875 0011847 184.6828 175.4300 15.22119133 49307
SUCHAI                  
1 42788U 17036Z   18135.39445109  .00001651  00000-0  75606-4 0  9990
2 42788  97.4040 195.7869 0011892 183.4020 176.7137 15.21835618 49600
SKCUBE                  
1 42789U 17036AA  18134.80134533  .00001516  00000-0  69767-4 0  9993
2 42789  97.4038 195.2005 0011646 185.3590 174.7523 15.21802293 49436
VZLUSAT-1               
1 42790U 17036AB  18134.82572805  .00001901  00000-0  85863-4 0  9998
2 42790  97.4040 195.3207 0011397 185.0180 175.0943 15.22142316 49446
ROBUSTA-1B              
1 42792U 17036AD  18135.16757319  .00001486  00000-0  68159-4 0  9990
2 42792  97.4036 195.6168 0011249 184.8215 175.2915 15.21942347 49503
CICERO 6                
1 42793U 17036AE  18134.89570291  .00000936  00000-0  44225-4 0  9999
2 42793  97.4030 195.3556 0010311 186.1486 173.9626 15.21814024 49537
D-SAT                   
1 42794U 17036AF  18134.68680049  .00000388  00000-0  39141-4 0  9992
2 42794  97.5945 190.6028 0127951  34.3702 326.5711 14.90851535 48735
TOKI                    
1 42820U 98067MU  18135.44732214  .00018097  00000-0  17526-3 0  9990
2 42820  51.6334 167.3479 0004367  32.3033 327.8229 15.66457658 48728
MAZAALAI (NUMSAT-1)     
1 42822U 98067MW  18135.15633386  .00018041  00000-0  17655-3 0  9992
2 42822  51.6337 169.1591 0004247  35.0212 325.1062 15.66199018 48655
BRAC ONNESHA            
1 42823U 98067MX  18135.47315843  .00017069  00000-0  16669-3 0  9996
2 42823  51.6343 167.5407 0006351  54.8860 305.2731 15.66286871 48709
NIGERIAEDUSAT-1         
1 42824U 98067MY  18135.36577947  .00017834  00000-0  17516-3 0  9992
2 42824  51.6348 168.3378 0006243  54.7426 305.4153 15.66107343 48670
